ICEYE-X6                
1 46497U 20068M   26133.80464108  .00001637  00000+0  12230-3 0  9999
2 46497  98.0963 125.8407 0006656 194.7515 165.3516 15.04327428308069
NETSAT-4                
1 46504U 20068U   26133.50000936  .00011537  00000+0  26646-3 0  9996
2 46504  97.8615 138.9870 0007646  89.0343 271.1779 15.42681553310427
NETSAT-3                
1 46505U 20068V   26133.54399787  .00012100  00000+0  29095-3 0  9994
2 46505  97.8664 137.2966 0007521 101.5501 258.6589 15.41453660310343
NETSAT-1                
1 46506U 20068W   26133.50210330  .00008185  00000+0  25313-3 0  9994
2 46506  97.8750 131.9823 0006790 120.8289 239.3621 15.33771865309989
NETSAT-2                
1 46507U 20068X   26133.51925066  .00014275  00000+0  30982-3 0  9990
2 46507  97.8631 138.7857 0006204 109.9337 250.2579 15.44488253310380
TIANQI-6                
1 46810U 20076D   26133.68975567  .00002209  00000+0  14645-3 0  9997
2 46810  34.9992 260.1480 0010715 227.8377 132.1423 15.06952780303373
KSM1-C                  
1 46906U 20081B   26133.75352035  .00005744  00000+0  22069-3 0  9992
2 46906  36.8938 271.4281 0002971 278.3003  81.7409 15.26167582303908
KSM1-D                  
1 46907U 20081C   26133.51404860  .00004264  00000+0  17466-3 0  9992
2 46907  36.8970 281.2595 0004856 315.9680  44.0682 15.24229815303805
KSM1-A                  
1 46912U 20081H   26133.73946184  .00004897  00000+0  19304-3 0  9997
2 46912  36.8962 273.6502 0002723  11.6490 348.4322 15.25420726303914
R2                      
1 46913U 20081J   26133.48746058  .00004891  00000+0  19557-3 0  9992
2 46913  36.8976 275.0123 0007387 341.2743  18.7734 15.24926944306682
KSM1-B                  
1 46914U 20081K   26133.51280779  .00004534  00000+0  18655-3 0  9992
2 46914  36.9021 281.7901 0006194 337.2104  22.8369 15.24030363306898
GONETS-M 20             
1 47227U 20091A   26133.79490461 -.00000020  00000+0 -21684-3 0  9996
2 47227  82.5040 323.8225 0019987 255.2490 104.6375 12.42892513246802
GONETS-M 21             
1 47228U 20091B   26133.84908888  .00000070  00000+0  43550-3 0  9999
2 47228  82.4962 322.5168 0013791 270.0783  89.8716 12.42884914246803
GONETS-M 22             
1 47229U 20091C   26133.82232470 -.00000043  00000+0 -38322-3 0  9998
2 47229  82.5021 323.4162 0020866 250.1925 109.6905 12.42890626246755
CUBEL                   
1 47448U 21006AM  26133.61061341  .00005640  00000+0  14138-3 0  9997
2 47448  97.2363 184.5396 0004962 304.8430  55.2349 15.40439695294434
ARKTIKA-M 1             
1 47719U 21016A   26129.11511190 -.00000078  00000+0  00000+0 0  9991
2 47719  63.2307  63.2755 7273343 269.7576  14.8669  2.00634688 38002
STARLINK-2342           
1 47883U 21021Z   26133.50778178  .00063628  00000+0  94702-3 0  9993
2 47883  53.1573 317.9590 0003262 215.3426 144.7369 15.54555814286470
GRUS-1B                 
1 47934U 21022C   26133.86446166  .00000228  00000+0  23552-4 0  9992
2 47934  97.5425  18.1851 0017093  75.6969 284.6151 14.98894714280751
UNISAT-7                
1 47945U 21022P   26133.52574978  .00008755  00000+0  22478-3 0  9998
2 47945  97.3924  38.1100 0008851 185.2380 174.8775 15.39521977284526
GLOBAL-9                
1 47971U 21023G   26133.29401990  .00012044  00000+0  25541-3 0  9995
2 47971  44.9806  86.4272 0002290 107.1392 252.9748 15.45173882289545
AII-BRAVO               
1 48270U 21034C   26133.14341764  .00002302  00000+0  17455-3 0  9997
2 48270  97.5656 188.8564 0006950  44.9195 315.2592 15.03200745274358
TYVAK-182A              
1 48271U 21034D   26133.77978419  .00003940  00000+0  27565-3 0  9992
2 48271  97.5746 193.2992 0007304  90.6555 269.5509 15.05824532274656
CSS (TIANHE)            
1 48274U 21035A   26133.47815922  .00012315  00000+0  13972-3 0  9995
2 48274  41.4670 173.0841 0004122 296.9881  63.0537 15.62173368287749
TYVAK-0130              
1 48606U 21041BF  26133.55960045  .00004773  00000+0  19003-3 0  9997
2 48606  52.9933 186.8358 0011136  63.9436 296.2706 15.27073027275098
HAIYANG-2D              
1 48621U 21043A   26133.88017139 -.00000170  00000+0 -80575-4 0  9991
2 48621  66.0004  30.1130 0011403 273.2166  86.7598 13.83372295251805
TYVAK-0173              
1 48892U 21059P   26133.48871729  .00001115  00000+0  14521-3 0  9992
2 48892  96.0084 218.4721 0010421 139.1139 221.0863 14.81768237263101
MANDRAKE 2 ABLE         
1 48907U 21059AE  26133.85845174  .00015180  00000+0  23982-3 0  9993
2 48907  97.7045 321.0640 0006251 114.8401 245.3502 15.53577026271799
