OBJECT_NAME,OBJECT_ID,EPOCH,MEAN_MOTION,ECCENTRICITY,INCLINATION,RA_OF_ASC_NODE,ARG_OF_PERICENTER,MEAN_ANOMALY,EPHEMERIS_TYPE,CLASSIFICATION_TYPE,NORAD_CAT_ID,ELEMENT_SET_NO,REV_AT_EPOCH,BSTAR,MEAN_MOTION_DOT,MEAN_MOTION_DDOT
ICEYE-X6,2020-068M,2026-05-13T19:18:40.989312,15.04327428,.0006656,98.0963,125.8407,194.7515,165.3516,0,U,46497,999,30806,.1223E-3,.1637E-4,0
NETSAT-4,2020-068U,2026-05-13T12:00:00.808704,15.42681553,.0007646,97.8615,138.9870,89.0343,271.1779,0,U,46504,999,31042,.26646E-3,.11537E-3,0
NETSAT-3,2020-068V,2026-05-13T13:03:21.415968,15.41453660,.0007521,97.8664,137.2966,101.5501,258.6589,0,U,46505,999,31034,.29095E-3,.121E-3,0
NETSAT-1,2020-068W,2026-05-13T12:03:01.725120,15.33771865,.000679,97.8750,131.9823,120.8289,239.3621,0,U,46506,999,30998,.25313E-3,.8185E-4,0
NETSAT-2,2020-068X,2026-05-13T12:27:43.257024,15.44488253,.0006204,97.8631,138.7857,109.9337,250.2579,0,U,46507,999,31038,.30982E-3,.14275E-3,0
TIANQI-6,2020-076D,2026-05-13T16:33:14.889888,15.06952780,.0010715,34.9992,260.1480,227.8377,132.1423,0,U,46810,999,30337,.14645E-3,.2209E-4,0
KSM1-C,2020-081B,2026-05-13T18:05:04.158240,15.26167582,.0002971,36.8938,271.4281,278.3003,81.7409,0,U,46906,999,30390,.22069E-3,.5744E-4,0
KSM1-D,2020-081C,2026-05-13T12:20:13.799040,15.24229815,.0004856,36.8970,281.2595,315.9680,44.0682,0,U,46907,999,30380,.17466E-3,.4264E-4,0
KSM1-A,2020-081H,2026-05-13T17:44:49.502976,15.25420726,.0002723,36.8962,273.6502,11.6490,348.4322,0,U,46912,999,30391,.19304E-3,.4897E-4,0
R2,2020-081J,2026-05-13T11:41:56.594112,15.24926944,.0007387,36.8976,275.0123,341.2743,18.7734,0,U,46913,999,30668,.19557E-3,.4891E-4,0
KSM1-B,2020-081K,2026-05-13T12:18:26.593056,15.24030363,.0006194,36.9021,281.7901,337.2104,22.8369,0,U,46914,999,30689,.18655E-3,.4534E-4,0
GONETS-M 20,2020-091A,2026-05-13T19:04:39.758304,12.42892513,.0019987,82.5040,323.8225,255.2490,104.6375,0,U,47227,999,24680,-.21684E-3,-.2E-6,0
GONETS-M 21,2020-091B,2026-05-13T20:22:41.279232,12.42884914,.0013791,82.4962,322.5168,270.0783,89.8716,0,U,47228,999,24680,.4355E-3,.7E-6,0
GONETS-M 22,2020-091C,2026-05-13T19:44:08.854080,12.42890626,.0020866,82.5021,323.4162,250.1925,109.6905,0,U,47229,999,24675,-.38322E-3,-.43E-6,0
CUBEL,2021-006AM,2026-05-13T14:39:16.998624,15.40439695,.0004962,97.2363,184.5396,304.8430,55.2349,0,U,47448,999,29443,.14138E-3,.564E-4,0
ARKTIKA-M 1,2021-016A,2026-05-09T02:45:45.668160,2.00634688,.72733431,63.2307,63.2755,269.7576,14.8669,0,U,47719,999,3800,0,-.78E-6,0
STARLINK-2342,2021-021Z,2026-05-13T12:11:12.345792,15.54555814,.0003262,53.1573,317.9590,215.3426,144.7369,0,U,47883,999,28647,.94702E-3,.63628E-3,0
GRUS-1B,2021-022C,2026-05-13T20:44:49.487424,14.98894714,.0017093,97.5425,18.1851,75.6969,284.6151,0,U,47934,999,28075,.23552E-4,.228E-5,0
UNISAT-7,2021-022P,2026-05-13T12:37:04.780992,15.39521977,.0008851,97.3924,38.1100,185.2380,174.8775,0,U,47945,999,28452,.22478E-3,.8755E-4,0
GLOBAL-9,2021-023G,2026-05-13T07:03:23.319360,15.45173882,.000229,44.9806,86.4272,107.1392,252.9748,0,U,47971,999,28954,.25541E-3,.12044E-3,0
AII-BRAVO,2021-034C,2026-05-13T03:26:31.284096,15.03200745,.000695,97.5656,188.8564,44.9195,315.2592,0,U,48270,999,27435,.17455E-3,.2302E-4,0
TYVAK-182A,2021-034D,2026-05-13T18:42:53.354016,15.05824532,.0007304,97.5746,193.2992,90.6555,269.5509,0,U,48271,999,27465,.27565E-3,.394E-4,0
CSS (TIANHE),2021-035A,2026-05-13T11:28:32.956608,15.62173368,.0004122,41.4670,173.0841,296.9881,63.0537,0,U,48274,999,28774,.13972E-3,.12315E-3,0
TYVAK-0130,2021-041BF,2026-05-13T13:25:49.478880,15.27073027,.0011136,52.9933,186.8358,63.9436,296.2706,0,U,48606,999,27509,.19003E-3,.4773E-4,0
HAIYANG-2D,2021-043A,2026-05-13T21:07:26.808096,13.83372295,.0011403,66.0004,30.1130,273.2166,86.7598,0,U,48621,999,25180,-.80575E-4,-.17E-5,0
TYVAK-0173,2021-059P,2026-05-13T11:43:45.173856,14.81768237,.0010421,96.0084,218.4721,139.1139,221.0863,0,U,48892,999,26310,.14521E-3,.1115E-4,0
MANDRAKE 2 ABLE,2021-059AE,2026-05-13T20:36:10.230336,15.53577026,.0006251,97.7045,321.0640,114.8401,245.3502,0,U,48907,999,27179,.23982E-3,.1518E-3,0
